"{\n    \"CCSDS_OMM_VERS\": \"2.0\",\n    \"COMMENT\": \"GENERATED VIA SPACE-TRACK.ORG API\",\n    \"CREATION_DATE\": \"2025-08-31T11:35:43\",\n    \"ORIGINATOR\": \"18 SPCS\",\n    \"OBJECT_NAME\": \"BEIDOU 3M12\",\n    \"OBJECT_ID\": \"2018-067B\",\n    \"CENTER_NAME\": \"EARTH\",\n    \"REF_FRAME\": \"TEME\",\n    \"TIME_SYSTEM\": \"UTC\",\n    \"MEAN_ELEMENT_THEORY\": \"SGP4\",\n    \"EPOCH\": \"2025-08-31T02:02:59.012736\",\n    \"MEAN_MOTION\": \"1.8622723779\",\n    \"ECCENTRICITY\": \"0.00046203409\",\n    \"INCLINATION\": \"54.18774\",\n    \"RA_OF_ASC_NODE\": \"190.84268\",\n    \"ARG_OF_PERICENTER\": \"14.602631\",\n    \"MEAN_ANOMALY\": \"345.39322\",\n    \"EPHEMERIS_TYPE\": \"0\",\n    \"CLASSIFICATION_TYPE\": \"U\",\n    \"NORAD_CAT_ID\": \"43603\",\n    \"ELEMENT_SET_NO\": \"999\",\n    \"REV_AT_EPOCH\": \"4774\",\n    \"BSTAR\": \"0\",\n    \"MEAN_MOTION_DOT\": \"0.000000289214\",\n    \"MEAN_MOTION_DDOT\": \"0\",\n    \"TLE_LINE0\": \"0 BEIDOU 3M12\",\n    \"TLE_LINE1\": \"1 43603U 18067B   25243.08540524  .00000029  00000-0  00000-0 0  9993\",\n    \"TLE_LINE2\": \"2 43603  54.1877 190.8427 0004620  14.6026 345.3932  1.86227238 47742\",\n    \"SEMIMAJOR_AXIS\": \"27906.564\",\n    \"PERIOD\": \"773.249\",\n    \"APOAPSIS\": \"21541.323\",\n    \"PERIAPSIS\": \"21515.536\",\n    \"OBJECT_TYPE\": \"PAYLOAD\",\n    \"DECAYED\": \"0\"\n}"